[
  {
    "COMMENT": "GENERATED VIA SPACETRACK.ORG API",
    "ORIGINATOR": "18 SPCS",
    "NORAD_CAT_ID": "27386",
    "OBJECT_NAME": "ENVISAT",
    "OBJECT_TYPE": "PAYLOAD",
    "CLASSIFICATION_TYPE": "U",
    "INTLDES": "02009A",
    "EPOCH": "2023-06-16 09:37:54",
    "EPOCH_MICROSECONDS": "893856",
    "MEAN_MOTION": "14.38359444",
    "ECCENTRICITY": "0.0001324",
    "INCLINATION": "98.2305",
    "RA_OF_ASC_NODE": "137.4358",
    "ARG_OF_PERICENTER": "90.7748",
    "MEAN_ANOMALY": "82.6075",
    "EPHEMERIS_TYPE": "0",
    "ELEMENT_SET_NO": "999",
    "REV_AT_EPOCH": "11584",
    "BSTAR": "0.000094519",
    "MEAN_MOTION_DOT": "0.00000246",
    "MEAN_MOTION_DDOT": "0",
    "FILE": "3934544",
    "TLE_LINE0": "0 ENVISAT",
    "TLE_LINE1": "1 27386U 02009A   23167.40132979  .00000246  00000-0  94519-4 0  9995",
    "TLE_LINE2": "2 27386  98.2305 137.4358 0001324  90.7748  82.6075 14.38359444115843",
    "OBJECT_ID": "2002-009A",
    "OBJECT_NUMBER": "27386",
    "SEMIMAJOR_AXIS": "7142.061",
    "PERIOD": "100.114",
    "APOGEE": "764.872",
    "PERIGEE": "762.980",
    "DECAYED": "0"
  },
  {
    "COMMENT": "GENERATED VIA SPACETRACK.ORG API",
    "ORIGINATOR": "18 SPCS",
    "NORAD_CAT_ID": "27386",
    "OBJECT_NAME": "ENVISAT",
    "OBJECT_TYPE": "PAYLOAD",
    "CLASSIFICATION_TYPE": "U",
    "INTLDES": "02009A",
    "EPOCH": "2023-06-16 12:40:44",
    "EPOCH_MICROSECONDS": "847840",
    "MEAN_MOTION": "14.38359559",
    "ECCENTRICITY": "0.0001331",
    "INCLINATION": "98.2305",
    "RA_OF_ASC_NODE": "137.5575",
    "ARG_OF_PERICENTER": "90.8788",
    "MEAN_ANOMALY": "19.569",
    "EPHEMERIS_TYPE": "0",
    "ELEMENT_SET_NO": "999",
    "REV_AT_EPOCH": "11579",
    "BSTAR": "0.000096751",
    "MEAN_MOTION_DOT": "0.00000253",
    "MEAN_MOTION_DDOT": "0",
    "FILE": "3934686",
    "TLE_LINE0": "0 ENVISAT",
    "TLE_LINE1": "1 27386U 02009A   23167.52829685  .00000253  00000-0  96751-4 0  9993",
    "TLE_LINE2": "2 27386  98.2305 137.5575 0001331  90.8788  19.5690 14.38359559115791",
    "OBJECT_ID": "2002-009A",
    "OBJECT_NUMBER": "27386",
    "SEMIMAJOR_AXIS": "7142.061",
    "PERIOD": "100.114",
    "APOGEE": "764.876",
    "PERIGEE": "762.975",
    "DECAYED": "0"
  },
  {
    "COMMENT": "GENERATED VIA SPACETRACK.ORG API",
    "ORIGINATOR": "18 SPCS",
    "NORAD_CAT_ID": "27386",
    "OBJECT_NAME": "ENVISAT",
    "OBJECT_TYPE": "PAYLOAD",
    "CLASSIFICATION_TYPE": "U",
    "INTLDES": "02009A",
    "EPOCH": "2023-06-16 16:18:50",
    "EPOCH_MICROSECONDS": "418144",
    "MEAN_MOTION": "14.38359627",
    "ECCENTRICITY": "0.0001336",
    "INCLINATION": "98.2305",
    "RA_OF_ASC_NODE": "137.7027",
    "ARG_OF_PERICENTER": "91.1732",
    "MEAN_ANOMALY": "83.0587",
    "EPHEMERIS_TYPE": "0",
    "ELEMENT_SET_NO": "999",
    "REV_AT_EPOCH": "11588",
    "BSTAR": "0.000096065",
    "MEAN_MOTION_DOT": "0.00000251",
    "MEAN_MOTION_DDOT": "0",
    "FILE": "3934778",
    "TLE_LINE0": "0 ENVISAT",
    "TLE_LINE1": "1 27386U 02009A   23167.67975021  .00000251  00000-0  96065-4 0  9991",
    "TLE_LINE2": "2 27386  98.2305 137.7027 0001336  91.1732  83.0587 14.38359627115880",
    "OBJECT_ID": "2002-009A",
    "OBJECT_NUMBER": "27386",
    "SEMIMAJOR_AXIS": "7142.060",
    "PERIOD": "100.114",
    "APOGEE": "764.880",
    "PERIGEE": "762.971",
    "DECAYED": "0"
  },
  {
    "COMMENT": "GENERATED VIA SPACETRACK.ORG API",
    "ORIGINATOR": "18 SPCS",
    "NORAD_CAT_ID": "27386",
    "OBJECT_NAME": "ENVISAT",
    "OBJECT_TYPE": "PAYLOAD",
    "CLASSIFICATION_TYPE": "U",
    "INTLDES": "02009A",
    "EPOCH": "2023-06-16 20:39:50",
    "EPOCH_MICROSECONDS": "420736",
    "MEAN_MOTION": "14.38359666",
    "ECCENTRICITY": "0.0001335",
    "INCLINATION": "98.2305",
    "RA_OF_ASC_NODE": "137.8765",
    "ARG_OF_PERICENTER": "91.2411",
    "MEAN_ANOMALY": "300.9753",
    "EPHEMERIS_TYPE": "0",
    "ELEMENT_SET_NO": "999",
    "REV_AT_EPOCH": "11584",
    "BSTAR": "0.00009107",
    "MEAN_MOTION_DOT": "0.00000236",
    "MEAN_MOTION_DDOT": "0",
    "FILE": "3934949",
    "TLE_LINE0": "0 ENVISAT",
    "TLE_LINE1": "1 27386U 02009A   23167.86100024  .00000236  00000-0  91070-4 0  9999",
    "TLE_LINE2": "2 27386  98.2305 137.8765 0001335  91.2411 300.9753 14.38359666115849",
    "OBJECT_ID": "2002-009A",
    "OBJECT_NUMBER": "27386",
    "SEMIMAJOR_AXIS": "7142.060",
    "PERIOD": "100.114",
    "APOGEE": "764.879",
    "PERIGEE": "762.972",
    "DECAYED": "0"
  },
  {
    "COMMENT": "GENERATED VIA SPACETRACK.ORG API",
    "ORIGINATOR": "18 SPCS",
    "NORAD_CAT_ID": "27386",
    "OBJECT_NAME": "ENVISAT",
    "OBJECT_TYPE": "PAYLOAD",
    "CLASSIFICATION_TYPE": "U",
    "INTLDES": "02009A",
    "EPOCH": "2023-06-16 22:16:29",
    "EPOCH_MICROSECONDS": "631072",
    "MEAN_MOTION": "14.38359693",
    "ECCENTRICITY": "0.000134",
    "INCLINATION": "98.2305",
    "RA_OF_ASC_NODE": "137.9409",
    "ARG_OF_PERICENTER": "91.4053",
    "MEAN_ANOMALY": "288.1654",
    "EPHEMERIS_TYPE": "0",
    "ELEMENT_SET_NO": "999",
    "REV_AT_EPOCH": "11592",
    "BSTAR": "0.000090273",
    "MEAN_MOTION_DOT": "0.00000234",
    "MEAN_MOTION_DDOT": "0",
    "FILE": "3935118",
    "TLE_LINE0": "0 ENVISAT",
    "TLE_LINE1": "1 27386U 02009A   23167.92812073  .00000234  00000-0  90273-4 0  9992",
    "TLE_LINE2": "2 27386  98.2305 137.9409 0001340  91.4053 288.1654 14.38359693115921",
    "OBJECT_ID": "2002-009A",
    "OBJECT_NUMBER": "27386",
    "SEMIMAJOR_AXIS": "7142.060",
    "PERIOD": "100.114",
    "APOGEE": "764.882",
    "PERIGEE": "762.968",
    "DECAYED": "0"
  },
  {
    "COMMENT": "GENERATED VIA SPACETRACK.ORG API",
    "ORIGINATOR": "18 SPCS",
    "NORAD_CAT_ID": "27386",
    "OBJECT_NAME": "ENVISAT",
    "OBJECT_TYPE": "PAYLOAD",
    "CLASSIFICATION_TYPE": "U",
    "INTLDES": "02009A",
    "EPOCH": "2023-06-17 10:36:43",
    "EPOCH_MICROSECONDS": "938144",
    "MEAN_MOTION": "14.3835994",
    "ECCENTRICITY": "0.0001341",
    "INCLINATION": "98.2306",
    "RA_OF_ASC_NODE": "138.4338",
    "ARG_OF_PERICENTER": "91.2083",
    "MEAN_ANOMALY": "68.6386",
    "EPHEMERIS_TYPE": "0",
    "ELEMENT_SET_NO": "999",
    "REV_AT_EPOCH": "11599",
    "BSTAR": "0.000088171",
    "MEAN_MOTION_DOT": "0.00000227",
    "MEAN_MOTION_DDOT": "0",
    "FILE": "3935454",
    "TLE_LINE0": "0 ENVISAT",
    "TLE_LINE1": "1 27386U 02009A   23168.44217521  .00000227  00000-0  88171-4 0  9993",
    "TLE_LINE2": "2 27386  98.2306 138.4338 0001341  91.2083  68.6386 14.38359940115996",
    "OBJECT_ID": "2002-009A",
    "OBJECT_NUMBER": "27386",
    "SEMIMAJOR_AXIS": "7142.059",
    "PERIOD": "100.114",
    "APOGEE": "764.882",
    "PERIGEE": "762.967",
    "DECAYED": "0"
  },
  {
    "COMMENT": "GENERATED VIA SPACETRACK.ORG API",
    "ORIGINATOR": "18 SPCS",
    "NORAD_CAT_ID": "27386",
    "OBJECT_NAME": "ENVISAT",
    "OBJECT_TYPE": "PAYLOAD",
    "CLASSIFICATION_TYPE": "U",
    "INTLDES": "02009A",
    "EPOCH": "2023-06-17 10:36:43",
    "EPOCH_MICROSECONDS": "938144",
    "MEAN_MOTION": "14.3835994",
    "ECCENTRICITY": "0.0001341",
    "INCLINATION": "98.2306",
    "RA_OF_ASC_NODE": "138.4338",
    "ARG_OF_PERICENTER": "91.2083",
    "MEAN_ANOMALY": "68.6386",
    "EPHEMERIS_TYPE": "0",
    "ELEMENT_SET_NO": "999",
    "REV_AT_EPOCH": "11592",
    "BSTAR": "0.000088171",
    "MEAN_MOTION_DOT": "0.00000227",
    "MEAN_MOTION_DDOT": "0",
    "FILE": "3935591",
    "TLE_LINE0": "0 ENVISAT",
    "TLE_LINE1": "1 27386U 02009A   23168.44217521  .00000227  00000-0  88171-4 0  9993",
    "TLE_LINE2": "2 27386  98.2306 138.4338 0001341  91.2083  68.6386 14.38359940115929",
    "OBJECT_ID": "2002-009A",
    "OBJECT_NUMBER": "27386",
    "SEMIMAJOR_AXIS": "7142.059",
    "PERIOD": "100.114",
    "APOGEE": "764.882",
    "PERIGEE": "762.967",
    "DECAYED": "0"
  },
  {
    "COMMENT": "GENERATED VIA SPACETRACK.ORG API",
    "ORIGINATOR": "18 SPCS",
    "NORAD_CAT_ID": "27386",
    "OBJECT_NAME": "ENVISAT",
    "OBJECT_TYPE": "PAYLOAD",
    "CLASSIFICATION_TYPE": "U",
    "INTLDES": "02009A",
    "EPOCH": "2023-06-17 15:41:00",
    "EPOCH_MICROSECONDS": "561408",
    "MEAN_MOTION": "14.38360048",
    "ECCENTRICITY": "0.000134",
    "INCLINATION": "98.2306",
    "RA_OF_ASC_NODE": "138.6365",
    "ARG_OF_PERICENTER": "91.1599",
    "MEAN_ANOMALY": "82.2013",
    "EPHEMERIS_TYPE": "0",
    "ELEMENT_SET_NO": "999",
    "REV_AT_EPOCH": "11602",
    "BSTAR": "0.000087882",
    "MEAN_MOTION_DOT": "0.00000226",
    "MEAN_MOTION_DDOT": "0",
    "FILE": "3935747",
    "TLE_LINE0": "0 ENVISAT",
    "TLE_LINE1": "1 27386U 02009A   23168.65347872  .00000226  00000-0  87882-4 0  9996",
    "TLE_LINE2": "2 27386  98.2306 138.6365 0001340  91.1599  82.2013 14.38360048116023",
    "OBJECT_ID": "2002-009A",
    "OBJECT_NUMBER": "27386",
    "SEMIMAJOR_AXIS": "7142.059",
    "PERIOD": "100.114",
    "APOGEE": "764.881",
    "PERIGEE": "762.967",
    "DECAYED": "0"
  },
  {
    "COMMENT": "GENERATED VIA SPACETRACK.ORG API",
    "ORIGINATOR": "18 SPCS",
    "NORAD_CAT_ID": "27386",
    "OBJECT_NAME": "ENVISAT",
    "OBJECT_TYPE": "PAYLOAD",
    "CLASSIFICATION_TYPE": "U",
    "INTLDES": "02009A",
    "EPOCH": "2023-06-17 19:59:04",
    "EPOCH_MICROSECONDS": "134336",
    "MEAN_MOTION": "14.38360205",
    "ECCENTRICITY": "0.0001331",
    "INCLINATION": "98.2306",
    "RA_OF_ASC_NODE": "138.8083",
    "ARG_OF_PERICENTER": "90.9461",
    "MEAN_ANOMALY": "289.8326",
    "EPHEMERIS_TYPE": "0",
    "ELEMENT_SET_NO": "999",
    "REV_AT_EPOCH": "11598",
    "BSTAR": "0.000089626",
    "MEAN_MOTION_DOT": "0.00000232",
    "MEAN_MOTION_DDOT": "0",
    "FILE": "3935891",
    "TLE_LINE0": "0 ENVISAT",
    "TLE_LINE1": "1 27386U 02009A   23168.83268674  .00000232  00000-0  89626-4 0  9993",
    "TLE_LINE2": "2 27386  98.2306 138.8083 0001331  90.9461 289.8326 14.38360205115988",
    "OBJECT_ID": "2002-009A",
    "OBJECT_NUMBER": "27386",
    "SEMIMAJOR_AXIS": "7142.058",
    "PERIOD": "100.114",
    "APOGEE": "764.874",
    "PERIGEE": "762.973",
    "DECAYED": "0"
  }
]